[{"OBJECT_NAME":"STARLINK-35373","OBJECT_ID":"2025-218B","EPOCH":"2026-03-09T13:52:45.133824","MEAN_MOTION":15.05649987,"ECCENTRICITY":0.0001465,"INCLINATION":97.6024,"RA_OF_ASC_NODE":292.8543,"ARG_OF_PERICENTER":87.2686,"MEAN_ANOMALY":272.8709,"EPHEMERIS_TYPE":0,"CLASSIFICATION_TYPE":"U","NORAD_CAT_ID":65792,"ELEMENT_SET_NO":999,"REV_AT_EPOCH":2495,"BSTAR":0.00037681,"MEAN_MOTION_DOT":5.38e-5,"MEAN_MOTION_DDOT":0},{"OBJECT_NAME":"FENGYUN 1C DEB","OBJECT_ID":"1999-025AYA","EPOCH":"2026-03-09T23:00:33.421824","MEAN_MOTION":14.97109165,"ECCENTRICITY":0.00762057,"INCLINATION":99.4912,"RA_OF_ASC_NODE":70.9716,"ARG_OF_PERICENTER":234.2891,"MEAN_ANOMALY":125.1218,"EPHEMERIS_TYPE":0,"CLASSIFICATION_TYPE":"U","NORAD_CAT_ID":30888,"ELEMENT_SET_NO":999,"REV_AT_EPOCH":1220,"BSTAR":0.0012389306,"MEAN_MOTION_DOT":0.0001511,"MEAN_MOTION_DDOT":0}]
